sat17582
1 17582U 87026A   20046.78426711  .00000011  00000-0  14224-5 0  9994
2 17582  82.5658 237.2277 0012087  24.0637 336.1017 12.64933000520151
